NORAD_CAT_ID,OBJECT_NAME,OBJECT_TYPE,EPOCH,MEAN_MOTION,ECCENTRICITY,INCLINATION,RA_OF_ASC_NODE,ARG_OF_PERICENTER,MEAN_ANOMALY,BSTAR,MEAN_MOTION_DOT,MEAN_MOTION_DDOT,TLE_LINE0,TLE_LINE1,TLE_LINE2,SEMIMAJOR_AXIS,PERIOD,APOGEE,PERIGEE,DECAYED
53932.0,STARLINK-4772,PAYLOAD,2023-02-19 06:42:57,15.08853032,0.0001083,53.2166,262.1458,67.871,292.2397,-0.00010581,-1.972e-05,0.0,0 STARLINK-4772,1 53932U 22119AY  23050.27982681 -.00001972  00000-0 -10581-3 0  9999,2 53932  53.2166 262.1458 0001083  67.8710 292.2397 15.08853032 23370,6917.841,95.437,540.455,538.956,0.0
53932.0,STARLINK-4772,PAYLOAD,2023-02-19 14:39:53,15.08830518,0.0001231,53.2175,260.6597,70.3949,289.7176,8.0689e-05,9.96e-06,0.0,0 STARLINK-4772,1 53932U 22119AY  23050.61103800  .00000996  00000-0  80689-4 0  9995,2 53932  53.2175 260.6597 0001231  70.3949 289.7176 15.08830518 23858,6917.909,95.438,540.626,538.923,0.0
53932.0,STARLINK-4772,PAYLOAD,2023-02-19 21:01:26,15.08832729,0.0001215,53.2177,259.4705,78.6462,281.4666,9.082e-05,1.158e-05,0.0,0 STARLINK-4772,1 53932U 22119AY  23050.87599696  .00001158  00000-0  90820-4 0  9994,2 53932  53.2177 259.4705 0001215  78.6462 281.4666 15.08832729 23466,6917.903,95.438,540.608,538.927,0.0
53932.0,STARLINK-4772,PAYLOAD,2023-02-20 06:33:44,15.08841521,0.0001324,53.2175,257.6861,123.0298,237.0821,5.7191e-06,-1.97e-06,0.0,0 STARLINK-4772,1 53932U 22119AY  23051.27343330 -.00000197  00000-0  57191-5 0  9999,2 53932  53.2175 257.6861 0001324 123.0298 237.0821 15.08841521 23527,6917.876,95.437,540.657,538.825,0.0
53932.0,STARLINK-4772,PAYLOAD,2023-02-20 14:30:40,15.08840479,0.0001184,53.2184,256.1992,83.9573,276.1554,6.7455e-06,-1.8e-06,0.0,0 STARLINK-4772,1 53932U 22119AY  23051.60463551 -.00000180  00000-0  67455-5 0  9990,2 53932  53.2184 256.1992 0001184  83.9573 276.1554 15.08840479 24002,6917.879,95.438,540.563,538.925,0.0
53932.0,STARLINK-4772,PAYLOAD,2023-02-21 06:24:31,15.08844847,0.0001198,53.2174,253.2245,83.6579,276.4549,1.9334e-06,-2.57e-06,0.0,0 STARLINK-4772,1 53932U 22119AY  23052.26703090 -.00000257  00000-0  19334-5 0  9996,2 53932  53.2174 253.2245 0001198  83.6579 276.4549 15.08844847 24109,6917.866,95.437,540.559,538.902,0.0
53932.0,STARLINK-4772,PAYLOAD,2023-02-21 19:07:36,15.08840794,0.0001193,53.2175,250.8453,85.9442,274.1686,2.6886e-05,1.4e-06,0.0,0 STARLINK-4772,1 53932U 22119AY  23052.79695263  .00000140  00000-0  26886-4 0  9995,2 53932  53.2175 250.8453 0001193  85.9442 274.1686 15.08840794 23757,6917.878,95.438,540.568,538.918,0.0
53932.0,STARLINK-4772,PAYLOAD,2023-02-21 20:42:59,15.0884256,0.0001202,53.2177,250.5481,85.7419,274.3711,4.0829e-05,3.62e-06,0.0,0 STARLINK-4772,1 53932U 22119AY  23052.86319127  .00000362  00000-0  40829-4 0  9994,2 53932  53.2177 250.5481 0001202  85.7419 274.3711 15.08842560 24193,6917.873,95.437,540.569,538.906,0.0
53932.0,STARLINK-4772,PAYLOAD,2023-02-22 12:36:51,15.08830726,0.0001268,53.2179,247.5742,87.2295,272.8842,0.00013373,1.841e-05,0.0,0 STARLINK-4772,1 53932U 22119AY  23053.52559509  .00001841  00000-0  13373-3 0  9994,2 53932  53.2179 247.5742 0001268  87.2295 272.8842 15.08830726 24292,6917.909,95.438,540.651,538.897,0.0
53932.0,STARLINK-4772,PAYLOAD,2023-02-22 18:58:23,15.08839951,0.0001253,53.2177,246.3849,85.3531,274.7604,3.7079e-05,3.02e-06,0.0,0 STARLINK-4772,1 53932U 22119AY  23053.79055210  .00000302  00000-0  37079-4 0  9994,2 53932  53.2177 246.3849 0001253  85.3531 274.7604 15.08839951 24332,6917.881,95.438,540.612,538.879,0.0
53932.0,STARLINK-4772,PAYLOAD,2023-02-23 06:06:05,15.08839252,0.0001186,53.2173,244.3034,84.087,276.0257,-1.7731e-05,-5.7e-06,0.0,0 STARLINK-4772,1 53932U 22119AY  23054.25423396 -.00000570  00000-0 -17731-4 0  9992,2 53932  53.2173 244.3034 0001186  84.0870 276.0257 15.08839252 23971,6917.883,95.438,540.568,538.927,0.0
53932.0,STARLINK-4772,PAYLOAD,2023-02-23 12:27:38,15.08838562,0.0001158,53.2175,243.1145,81.9675,278.1449,1.9953e-05,3e-07,0.0,0 STARLINK-4772,1 53932U 22119AY  23054.51919301  .00000030  00000-0  19953-4 0  9994,2 53932  53.2175 243.1145 0001158  81.9675 278.1449 15.08838562 24443,6917.885,95.438,540.551,538.949,0.0
53932.0,STARLINK-4772,PAYLOAD,2023-02-23 18:49:10,15.08838925,0.0001171,53.2174,241.9249,81.8033,278.3092,2.3047e-05,7.9e-07,0.0,0 STARLINK-4772,1 53932U 22119AY  23054.78415279  .00000079  00000-0  23047-4 0  9990,2 53932  53.2174 241.9249 0001171  81.8033 278.3092 15.08838925 24488,6917.884,95.438,540.559,538.939,0.0
53932.0,STARLINK-4772,PAYLOAD,2023-02-24 12:18:25,15.08837085,0.0001135,53.2176,238.6541,81.2728,278.8393,2.6041e-05,1.27e-06,0.0,0 STARLINK-4772,1 53932U 22119AY  23055.51279425  .00000127  00000-0  26041-4 0  9994,2 53932  53.2176 238.6541 0001135  81.2728 278.8393 15.08837085 24163,6917.889,95.438,540.539,538.969,0.0
53932.0,STARLINK-4772,PAYLOAD,2023-02-24 18:39:57,15.08838985,0.0001128,53.2176,237.4642,83.761,276.351,4.0948e-05,3.64e-06,0.0,0 STARLINK-4772,1 53932U 22119AY  23055.77775282  .00000364  00000-0  40948-4 0  9999,2 53932  53.2176 237.4642 0001128  83.7610 276.3510 15.08838985 24637,6917.883,95.438,540.529,538.968,0.0
53932.0,STARLINK-4772,PAYLOAD,2023-02-25 18:30:45,15.08828598,0.0001103,53.2186,233.0039,85.8995,274.2123,0.00014098,1.956e-05,0.0,0 STARLINK-4772,1 53932U 22119AY  23056.77135916  .00001956  00000-0  14098-3 0  9998,2 53932  53.2186 233.0039 0001103  85.8995 274.2123 15.08828598 24357,6917.915,95.438,540.543,539.017,0.0
53932.0,STARLINK-4772,PAYLOAD,2023-02-26 11:59:59,15.08847907,0.000112,53.2183,229.7327,82.8168,277.2952,-5.2263e-05,-1.12e-05,0.0,0 STARLINK-4772,1 53932U 22119AY  23057.49999314 -.00001120  00000-0 -52263-4 0  9990,2 53932  53.2183 229.7327 0001120  82.8168 277.2952 15.08847907 24464,6917.856,95.437,540.496,538.946,0.0
53932.0,STARLINK-4772,PAYLOAD,2023-02-26 21:32:17,15.08848073,9.7e-05,53.2189,227.9483,81.4617,278.6485,0.00011167,1.49e-05,0.0,0 STARLINK-4772,1 53932U 22119AY  23057.89742635  .00001490  00000-0  11167-3 0  9991,2 53932  53.2189 227.9483 0000970  81.4617 278.6485 15.08848073 24954,6917.856,95.437,540.392,539.05,0.0
53932.0,STARLINK-4772,PAYLOAD,2023-02-27 11:50:46,15.08836309,9.96e-05,53.2175,225.272,91.471,268.6396,1.9776e-06,-2.56e-06,0.0,0 STARLINK-4772,1 53932U 22119AY  23058.49359824 -.00000256  00000-0  19776-5 0  9998,2 53932  53.2175 225.2720 0000996  91.4710 268.6396 15.08836309 24619,6917.892,95.438,540.446,539.068,0.0
53932.0,STARLINK-4772,PAYLOAD,2023-02-27 18:12:18,15.0884843,0.0001262,53.22,224.0861,105.3758,254.7374,0.00011349,1.519e-05,0.0,0 STARLINK-4772,1 53932U 22119AY  23058.75854730  .00001519  00000-0  11349-3 0  9991,2 53932  53.2200 224.0861 0001262 105.3758 254.7374 15.08848430 24659,6917.855,95.437,540.593,538.847,0.0
53932.0,STARLINK-4772,PAYLOAD,2023-02-27 21:23:04,15.08853231,0.0001044,53.2182,223.4882,90.8955,269.2156,0.00014316,1.992e-05,0.0,0 STARLINK-4772,1 53932U 22119AY  23058.89102257  .00001992  00000-0  14316-3 0  9998,2 53932  53.2182 223.4882 0001044  90.8955 269.2156 15.08853231 25104,6917.84,95.437,540.427,538.983,0.0
53932.0,STARLINK-4772,PAYLOAD,2023-02-28 10:06:11,15.08835022,0.0002172,53.2181,221.1086,76.1682,283.9552,-3.2197e-05,-8.01e-06,0.0,0 STARLINK-4772,1 53932U 22119AY  23059.42096403 -.00000801  00000-0 -32197-4 0  9991,2 53932  53.2181 221.1086 0002172  76.1682 283.9552 15.08835022 24752,6917.896,95.438,541.263,538.258,0.0
53932.0,STARLINK-4772,PAYLOAD,2023-02-28 14:52:21,15.08821625,0.0001494,53.2206,220.2201,82.4765,277.6397,-0.00016255,-2.873e-05,0.0,0 STARLINK-4772,1 53932U 22119AY  23059.61969669 -.00002873  00000-0 -16255-3 0  9992,2 53932  53.2206 220.2201 0001494  82.4765 277.6397 15.08821625 25210,6917.937,95.439,540.835,538.768,0.0
53932.0,STARLINK-4772,PAYLOAD,2023-03-01 11:32:22,15.08821408,0.0001601,53.2204,216.3521,80.7783,279.339,-2.3755e-05,-6.66e-06,0.0,0 STARLINK-4772,1 53932U 22119AY  23060.48082094 -.00000666  00000-0 -23755-4 0  9999,2 53932  53.2204 216.3521 0001601  80.7783 279.3390 15.08821408 24917,6917.937,95.439,540.91,538.695,0.0
53932.0,STARLINK-4772,PAYLOAD,2023-03-02 03:26:12,15.08853569,0.0001169,53.2206,213.3793,77.3311,282.7812,1.6857e-05,-1.9e-07,0.0,0 STARLINK-4772,1 53932U 22119AY  23061.14319585 -.00000019  00000-0  16857-4 0  9997,2 53932  53.2206 213.3793 0001169  77.3311 282.7812 15.08853569 25017,6917.839,95.437,540.513,538.895,0.0
53932.0,STARLINK-4772,PAYLOAD,2023-03-02 19:20:04,15.08835234,0.0001301,53.2174,210.4052,67.5588,292.5542,0.00023966,3.528e-05,0.0,0 STARLINK-4772,1 53932U 22119AY  23061.80560505  .00003528  00000-0  23966-3 0  9995,2 53932  53.2174 210.4052 0001301  67.5588 292.5542 15.08835234 25111,6917.895,95.438,540.66,538.86,0.0
53932.0,STARLINK-4772,PAYLOAD,2023-03-03 09:38:32,15.08844786,0.000135,53.2171,207.7294,74.4747,285.6394,0.00012064,1.633e-05,0.0,0 STARLINK-4772,1 53932U 22119AY  23062.40176239  .00001633  00000-0  12064-3 0  9991,2 53932  53.2171 207.7294 0001350  74.4747 285.6394 15.08844786 25630,6917.866,95.437,540.665,538.797,0.0
53932.0,STARLINK-4772,PAYLOAD,2023-03-03 19:10:50,15.08856013,0.0001533,53.2154,205.9443,82.1354,277.9812,0.00013916,1.928e-05,0.0,0 STARLINK-4772,1 53932U 22119AY  23062.79919182  .00001928  00000-0  13916-3 0  9999,2 53932  53.2154 205.9443 0001533  82.1354 277.9812 15.08856013 25691,6917.831,95.437,540.757,538.636,0.0
53932.0,STARLINK-4772,PAYLOAD,2023-03-04 09:29:19,15.08839341,0.0001321,53.2169,203.2692,87.4358,272.6785,-1.2131e-05,-4.81e-06,0.0,0 STARLINK-4772,1 53932U 22119AY  23063.39536385 -.00000481  00000-0 -12131-4 0  9990,2 53932  53.2169 203.2692 0001321  87.4358 272.6785 15.08839341 25350,6917.882,95.438,540.661,538.834,0.0
53932.0,STARLINK-4772,PAYLOAD,2023-03-04 19:01:37,15.08844509,0.000133,53.217,201.4825,109.2435,250.8701,1.3345e-05,-7.5e-07,0.0,0 STARLINK-4772,1 53932U 22119AY  23063.79279794 -.00000075  00000-0  13345-4 0  9998,2 53932  53.2170 201.4825 0001330 109.2435 250.8701 15.08844509 25841,6917.867,95.437,540.652,538.812,0.0
